start=new Date('2023-06-29T00:00:00.000Z').valueOf();
sats=[{"CLASSIFICATION_TYPE":"U","PERIOD":"91.724","SEMIMAJOR_AXIS":"6737.263","OBJECT_TYPE":"PAYLOAD","COUNTRY_CODE":"US","EPOCH":"2023-06-28T06:43:06.791808","MEAN_MOTION_DOT":"-0.00000685","OBJECT_NAME":"STARLINK-5479","INCLINATION":"69.9983","DECAY_DATE":null,"RA_OF_ASC_NODE":"143.0000","MEAN_ELEMENT_THEORY":"SGP4","REF_FRAME":"TEME","SITE":"AFWTR","GP_ID":"234607130","MEAN_ANOMALY":"91.7642","OBJECT_ID":"2023-021AL","MEAN_MOTION_DDOT":"0.0000000000000","ELEMENT_SET_NO":"999","LAUNCH_DATE":"2023-02-17","REV_AT_EPOCH":"2102","TLE_LINE2":"2 55662  69.9983 143.0000 0003719 268.3127  91.7642 15.69919931 21024","ECCENTRICITY":"0.00037190","CENTER_NAME":"EARTH","ARG_OF_PERICENTER":"268.3127","TLE_LINE1":"1 55662U 23021AL  23179.27993972 -.00000685  00000-0 -39286-5 0  9996","APOAPSIS":"361.634","PERIAPSIS":"356.622","RCS_SIZE":"LARGE","FILE":"3945019","NORAD_CAT_ID":"55662","TIME_SYSTEM":"UTC","EPHEMERIS_TYPE":"0","MEAN_MOTION":"15.69919931","BSTAR":"-0.00000392860000"},{"MEAN_MOTION":"15.69922158","BSTAR":"0.00000631210000","NORAD_CAT_ID":"55663","TIME_SYSTEM":"UTC","EPHEMERIS_TYPE":"0","FILE":"3944086","RCS_SIZE":"LARGE","PERIAPSIS":"356.632","CENTER_NAME":"EARTH","APOAPSIS":"361.611","TLE_LINE1":"1 55663U 23021AM  23178.38685341  .00000546  00000-0  63121-5 0  9995","ARG_OF_PERICENTER":"265.3180","TLE_LINE2":"2 55663  69.9961 145.5019 0003695 265.3180  94.7594 15.69922158 20884","ECCENTRICITY":"0.00036950","ELEMENT_SET_NO":"999","LAUNCH_DATE":"2023-02-17","REV_AT_EPOCH":"2088","GP_ID":"234584054","SITE":"AFWTR","OBJECT_ID":"2023-021AM","MEAN_MOTION_DDOT":"0.0000000000000","MEAN_ANOMALY":"94.7594","MEAN_ELEMENT_THEORY":"SGP4","RA_OF_ASC_NODE":"145.5019","REF_FRAME":"TEME","DECAY_DATE":null,"MEAN_MOTION_DOT":"0.00000546","INCLINATION":"69.9961","OBJECT_NAME":"STARLINK-5473","COUNTRY_CODE":"US","EPOCH":"2023-06-27T09:17:04.134624","OBJECT_TYPE":"PAYLOAD","SEMIMAJOR_AXIS":"6737.257","PERIOD":"91.724","CLASSIFICATION_TYPE":"U"},{"CENTER_NAME":"EARTH","APOAPSIS":"361.547","ARG_OF_PERICENTER":"257.6146","TLE_LINE1":"1 55664U 23021AN  23179.34323532  .00000929  00000-0  94989-5 0  9995","ECCENTRICITY":"0.00035980","TLE_LINE2":"2 55664  69.9994 142.8185 0003598 257.6146 102.4647 15.69921785 21032","LAUNCH_DATE":"2023-02-17","ELEMENT_SET_NO":"999","REV_AT_EPOCH":"2103","MEAN_MOTION":"15.69921785","BSTAR":"0.00000949890000","NORAD_CAT_ID":"55664","TIME_SYSTEM":"UTC","EPHEMERIS_TYPE":"0","RCS_SIZE":"LARGE","FILE":"3944865","PERIAPSIS":"356.699","INCLINATION":"69.9994","MEAN_MOTION_DOT":"0.00000929","OBJECT_NAME":"STARLINK-5480","COUNTRY_CODE":"US","EPOCH":"2023-06-28T08:14:15.531648","OBJECT_TYPE":"PAYLOAD","PERIOD":"91.724","SEMIMAJOR_AXIS":"6737.258","CLASSIFICATION_TYPE":"U","GP_ID":"234603186","SITE":"AFWTR","OBJECT_ID":"2023-021AN","MEAN_MOTION_DDOT":"0.0000000000000","MEAN_ANOMALY":"102.4647","MEAN_ELEMENT_THEORY":"SGP4","RA_OF_ASC_NODE":"142.8185","REF_FRAME":"TEME","DECAY_DATE":null},{"TLE_LINE1":"1 55665U 23021AP  23178.64203388  .00000393  00000-0  50365-5 0  9999","ARG_OF_PERICENTER":"267.1118","APOAPSIS":"361.434","CENTER_NAME":"EARTH","REV_AT_EPOCH":"2093","LAUNCH_DATE":"2023-02-17","ELEMENT_SET_NO":"999","TLE_LINE2":"2 55665  69.9976 144.7883 0003449 267.1118  92.9683 15.69926264 20937","ECCENTRICITY":"0.00034490","EPHEMERIS_TYPE":"0","TIME_SYSTEM":"UTC","NORAD_CAT_ID":"55665","BSTAR":"0.00000503650000","MEAN_MOTION":"15.69926264","PERIAPSIS":"356.786","FILE":"3944378","RCS_SIZE":"LARGE","EPOCH":"2023-06-27T15:24:31.727232","COUNTRY_CODE":"US","MEAN_MOTION_DOT":"0.00000393","OBJECT_NAME":"STARLINK-5474","INCLINATION":"69.9976","CLASSIFICATION_TYPE":"U","SEMIMAJOR_AXIS":"6737.245","PERIOD":"91.724","OBJECT_TYPE":"PAYLOAD","MEAN_ANOMALY":"92.9683","OBJECT_ID":"2023-021AP","MEAN_MOTION_DDOT":"0.0000000000000","SITE":"AFWTR","GP_ID":"234591496","DECAY_DATE":null,"REF_FRAME":"TEME","RA_OF_ASC_NODE":"144.7883","MEAN_ELEMENT_THEORY":"SGP4"},{"TLE_LINE2":"2 55667  69.9959 144.7863 0003498 263.9101  96.1696 15.69924754 20929","ECCENTRICITY":"0.00034980","ELEMENT_SET_NO":"999","LAUNCH_DATE":"2023-02-17","REV_AT_EPOCH":"2092","CENTER_NAME":"EARTH","TLE_LINE1":"1 55667U 23021AR  23178.64161290  .00000542  00000-0  62796-5 0  9993","ARG_OF_PERICENTER":"263.9101","APOAPSIS":"361.471","RCS_SIZE":"LARGE","FILE":"3944523","PERIAPSIS":"356.758","MEAN_MOTION":"15.69924754","BSTAR":"0.00000627960000","NORAD_CAT_ID":"55667","TIME_SYSTEM":"UTC","EPHEMERIS_TYPE":"0","SEMIMAJOR_AXIS":"6737.249","PERIOD":"91.724","OBJECT_TYPE":"PAYLOAD","CLASSIFICATION_TYPE":"U","INCLINATION":"69.9959","MEAN_MOTION_DOT":"0.00000542","OBJECT_NAME":"STARLINK-5456","COUNTRY_CODE":"US","EPOCH":"2023-06-27T15:23:55.354560","RA_OF_ASC_NODE":"144.7863","MEAN_ELEMENT_THEORY":"SGP4","REF_FRAME":"TEME","DECAY_DATE":null,"SITE":"AFWTR","GP_ID":"234594874","MEAN_ANOMALY":"96.1696","MEAN_MOTION_DDOT":"0.0000000000000","OBJECT_ID":"2023-021AR"},{"MEAN_MOTION":"15.69925655","BSTAR":"0.00001947000000","NORAD_CAT_ID":"55668","EPHEMERIS_TYPE":"0","TIME_SYSTEM":"UTC","FILE":"3944923","RCS_SIZE":"LARGE","PERIAPSIS":"356.821","CENTER_NAME":"EARTH","APOAPSIS":"361.402","ARG_OF_PERICENTER":"265.2375","TLE_LINE1":"1 55668U 23021AS  23179.34302450  .00002129  00000-0  19470-4 0  9990","ECCENTRICITY":"0.00034000","TLE_LINE2":"2 55668  69.9989 142.8186 0003400 265.2375  94.8433 15.69925655 21039","ELEMENT_SET_NO":"999","LAUNCH_DATE":"2023-02-17","REV_AT_EPOCH":"2103","GP_ID":"234604757","SITE":"AFWTR","MEAN_MOTION_DDOT":"0.0000000000000","OBJECT_ID":"2023-021AS","MEAN_ANOMALY":"94.8433","MEAN_ELEMENT_THEORY":"SGP4","RA_OF_ASC_NODE":"142.8186","REF_FRAME":"TEME","DECAY_DATE":null,"MEAN_MOTION_DOT":"0.00002129","OBJECT_NAME":"STARLINK-5455","INCLINATION":"69.9989","COUNTRY_CODE":"US","EPOCH":"2023-06-28T08:13:57.316800","OBJECT_TYPE":"PAYLOAD","SEMIMAJOR_AXIS":"6737.247","PERIOD":"91.724","CLASSIFICATION_TYPE":"U"},{"APOAPSIS":"361.473","TLE_LINE1":"1 55669U 23021AT  23179.02412612  .00002074  00000-0  19014-4 0  9991","ARG_OF_PERICENTER":"265.6260","CENTER_NAME":"EARTH","TLE_LINE2":"2 55669  69.9987 143.7124 0003487 265.6260  94.4538 15.69921499 20989","ECCENTRICITY":"0.00034870","REV_AT_EPOCH":"2098","LAUNCH_DATE":"2023-02-17","ELEMENT_SET_NO":"999","BSTAR":"0.00001901400000","MEAN_MOTION":"15.69921499","EPHEMERIS_TYPE":"0","TIME_SYSTEM":"UTC","NORAD_CAT_ID":"55669","FILE":"3944671","RCS_SIZE":"LARGE","PERIAPSIS":"356.774","MEAN_MOTION_DOT":"0.00002074","INCLINATION":"69.9987","OBJECT_NAME":"STARLINK-5459","EPOCH":"2023-06-28T00:34:44.496768","COUNTRY_CODE":"US","OBJECT_TYPE":"PAYLOAD","PERIOD":"91.724","SEMIMAJOR_AXIS":"6737.259","CLASSIFICATION_TYPE":"U","OBJECT_ID":"2023-021AT","MEAN_MOTION_DDOT":"0.0000000000000","MEAN_ANOMALY":"94.4538","GP_ID":"234598312","SITE":"AFWTR","REF_FRAME":"TEME","MEAN_ELEMENT_THEORY":"SGP4","RA_OF_ASC_NODE":"143.7124","DECAY_DATE":null},{"SITE":"AFWTR","GP_ID":"234605247","MEAN_ANOMALY":"96.1871","OBJECT_ID":"2023-021AU","MEAN_MOTION_DDOT":"0.0000000000000","DECAY_DATE":null,"RA_OF_ASC_NODE":"142.8163","MEAN_ELEMENT_THEORY":"SGP4","REF_FRAME":"TEME","COUNTRY_CODE":"US","EPOCH":"2023-06-28T08:13:04.233504","OBJECT_NAME":"STARLINK-5423","MEAN_MOTION_DOT":"-0.00007100","INCLINATION":"69.9988","CLASSIFICATION_TYPE":"U","SEMIMAJOR_AXIS":"6737.345","PERIOD":"91.726","OBJECT_TYPE":"PAYLOAD","NORAD_CAT_ID":"55670","TIME_SYSTEM":"UTC","EPHEMERIS_TYPE":"0","MEAN_MOTION":"15.69891248","BSTAR":"-0.00005740500000","PERIAPSIS":"356.841","FILE":"3944923","RCS_SIZE":"LARGE","CENTER_NAME":"EARTH","TLE_LINE1":"1 55670U 23021AU  23179.34241011 -.00007100  00000-0 -57405-4 0  9994","ARG_OF_PERICENTER":"263.8924","APOAPSIS":"361.579","ELEMENT_SET_NO":"999","LAUNCH_DATE":"2023-02-17","REV_AT_EPOCH":"2103","TLE_LINE2":"2 55670  69.9988 142.8163 0003516 263.8924  96.1871 15.69891248 21039","ECCENTRICITY":"0.00035160"},{"DECAY_DATE":null,"REF_FRAME":"TEME","MEAN_ELEMENT_THEORY":"SGP4","RA_OF_ASC_NODE":"145.4994","MEAN_MOTION_DDOT":"0.0000000000000","OBJECT_ID":"2023-021AV","MEAN_ANOMALY":"95.8033","GP_ID":"234587595","SITE":"AFWTR","CLASSIFICATION_TYPE":"U","OBJECT_TYPE":"PAYLOAD","SEMIMAJOR_AXIS":"6737.247","PERIOD":"91.724","EPOCH":"2023-06-27T09:15:51.011712","COUNTRY_CODE":"US","MEAN_MOTION_DOT":"-0.00000363","INCLINATION":"69.9983","OBJECT_NAME":"STARLINK-5460","PERIAPSIS":"356.751","FILE":"3944229","RCS_SIZE":"LARGE","TIME_SYSTEM":"UTC","EPHEMERIS_TYPE":"0","NORAD_CAT_ID":"55671","BSTAR":"-0.00000124920000","MEAN_MOTION":"15.69925550","REV_AT_EPOCH":"2088","ELEMENT_SET_NO":"999","LAUNCH_DATE":"2023-02-17","TLE_LINE2":"2 55671  69.9983 145.4994 0003504 264.2763  95.8033 15.69925550 20881","ECCENTRICITY":"0.00035040","APOAPSIS":"361.473","TLE_LINE1":"1 55671U 23021AV  23178.38600708 -.00000363  00000-0 -12492-5 0  9992","ARG_OF_PERICENTER":"264.2763","CENTER_NAME":"EARTH"},{"OBJECT_ID":"2023-021AW","MEAN_MOTION_DDOT":"0.0000000000000","MEAN_ANOMALY":"92.8800","GP_ID":"234591497","SITE":"AFWTR","REF_FRAME":"TEME","MEAN_ELEMENT_THEORY":"SGP4","RA_OF_ASC_NODE":"144.7841","DECAY_DATE":null,"INCLINATION":"69.9980","MEAN_MOTION_DOT":"0.00002704","OBJECT_NAME":"STARLINK-5461","EPOCH":"2023-06-27T15:23:00.789504","COUNTRY_CODE":"US","OBJECT_TYPE":"PAYLOAD","PERIOD":"91.724","SEMIMAJOR_AXIS":"6737.249","CLASSIFICATION_TYPE":"U","BSTAR":"0.00002424800000","MEAN_MOTION":"15.69924816","EPHEMERIS_TYPE":"0","TIME_SYSTEM":"UTC","NORAD_CAT_ID":"55672","FILE":"3944378","RCS_SIZE":"LARGE","PERIAPSIS":"356.749","APOAPSIS":"361.480","ARG_OF_PERICENTER":"267.1993","TLE_LINE1":"1 55672U 23021AW  23178.64098136  .00002704  00000-0  24248-4 0  9998","CENTER_NAME":"EARTH","ECCENTRICITY":"0.00035110","TLE_LINE2":"2 55672  69.9980 144.7841 0003511 267.1993  92.8800 15.69924816 20925","REV_AT_EPOCH":"2092","LAUNCH_DATE":"2023-02-17","ELEMENT_SET_NO":"999"}];
